METOP-B                 
1 38771U 12049A   24272.08225610  .00000406  00000+0  20514-3 0  9997
2 38771  98.6172 326.9417 0001384 108.8977 251.2351 14.21520206624160
METOP-B                 
1 38771U 12049A   24272.43419135  .00000399  00000+0  20170-3 0  9992
2 38771  98.6172 327.2853 0001387 108.6078 251.5250 14.21520478624219
METOP-B                 
1 38771U 12049A   24272.57496542  .00000399  00000+0  20201-3 0  9999
2 38771  98.6171 327.4227 0001388 108.5430 251.5898 14.21520617624243
METOP-B                 
1 38771U 12049A   24272.85651339  .00000429  00000+0  21565-3 0  9995
2 38771  98.6171 327.6976 0001394 108.3895 251.7434 14.21521036624273
METOP-B                 
1 38771U 12049A   24272.92690041  .00000420  00000+0  21130-3 0  9995
2 38771  98.6171 327.7663 0001390 108.3050 251.8278 14.21521066624298
METOP-B                 
1 38771U 12049A   24273.13806141  .00000423  00000+0  21265-3 0  9991
2 38771  98.6170 327.9724 0001388 108.1261 252.0067 14.21521289624315
METOP-B                 
1 38771U 12049A   24273.48999630  .00000448  00000+0  22434-3 0  9991
2 38771  98.6170 328.3160 0001389 108.0555 252.0774 14.21521740624362
METOP-B                 
1 38771U 12049A   24273.56038327  .00000449  00000+0  22481-3 0  9990
2 38771  98.6170 328.3847 0001390 108.0182 252.1147 14.21521820624388
METOP-B                 
1 38771U 12049A   24273.77154413  .00000467  00000+0  23317-3 0  9997
2 38771  98.6170 328.5908 0001395 107.8121 252.3208 14.21522114624403
METOP-B                 
1 38771U 12049A   24273.84193109  .00000466  00000+0  23231-3 0  9994
2 38771  98.6169 328.6595 0001396 107.8988 252.2341 14.21522168624424
METOP-B                 
1 38771U 12049A   24274.12347890  .00000465  00000+0  23222-3 0  9993
2 38771  98.6169 328.9343 0001398 107.6903 252.4427 14.21522445624453
METOP-B                 
1 38771U 12049A   24274.40502654  .00000507  00000+0  25123-3 0  9994
2 38771  98.6169 329.2092 0001403 107.5722 252.5609 14.21522957624498
METOP-B                 
1 38771U 12049A   24274.54580042  .00000483  00000+0  24006-3 0  9998
2 38771  98.6168 329.3466 0001405 107.4397 252.6934 14.21522953624524
METOP-B                 
1 38771U 12049A   24274.82734793  .00000517  00000+0  25577-3 0  9995
2 38771  98.6168 329.6214 0001409 107.2413 252.8918 14.21523442624550
METOP-B                 
1 38771U 12049A   24274.89773485  .00000513  00000+0  25403-3 0  9997
2 38771  98.6167 329.6901 0001407 107.2774 252.8558 14.21523483624577
METOP-B                 
1 38771U 12049A   24275.17928237  .00000540  00000+0  26622-3 0  9990
2 38771  98.6167 329.9649 0001404 107.1698 252.9633 14.21523926624601
METOP-B                 
1 38771U 12049A   24275.46082988  .00000545  00000+0  26857-3 0  9991
2 38771  98.6166 330.2398 0001409 106.8593 253.2740 14.21524230624647
METOP-B                 
1 38771U 12049A   24275.60160357  .00000549  00000+0  27041-3 0  9994
2 38771  98.6166 330.3772 0001409 106.7491 253.3841 14.21524418624674
METOP-B                 
1 38771U 12049A   24275.81276400  .00000570  00000+0  28002-3 0  9996
2 38771  98.6165 330.5833 0001410 106.6757 253.4576 14.21524787624696
METOP-B                 
1 38771U 12049A   24275.81276400  .00000570  00000+0  28002-3 0  9996
2 38771  98.6165 330.5833 0001410 106.6757 253.4576 14.21524787624708
METOP-B                 
1 38771U 12049A   24276.16469781  .00000836  00000+0  40164-3 0  9999
2 38771  98.6164 330.9268 0001408 106.4934 253.6399 14.21526694624743
METOP-B                 
1 38771U 12049A   24276.44624494  .00000811  00000+0  39016-3 0  9991
2 38771  98.6164 331.2017 0001410 106.1692 253.9641 14.21526902624789
METOP-B                 
1 38771U 12049A   24276.44624494  .00000811  00000+0  39016-3 0  9991
2 38771  98.6164 331.2017 0001410 106.1692 253.9641 14.21526902624790
METOP-B                 
1 38771U 12049A   24276.79817852  .00000865  00000+0  41489-3 0  9997
2 38771  98.6163 331.5452 0001413 106.0991 254.0343 14.21527721624835
METOP-B                 
1 38771U 12049A   24276.86856524  .00000856  00000+0  41073-3 0  9993
2 38771  98.6163 331.6139 0001408 106.0297 254.1035 14.21527786624853
METOP-B                 
1 38771U 12049A   24277.15011299  .00000879  00000+0  42120-3 0  9997
2 38771  98.6162 331.8887 0001411 105.8869 254.2464 14.21528021624883
METOP-B                 
1 38771U 12049A   24277.57243314  .00000880  00000+0  42139-3 0  9990
2 38771  98.6161 332.3010 0001417 105.5230 254.6104 14.21528640624951
METOP-B                 
1 38771U 12049A   24277.78359311  .00000888  00000+0  42540-3 0  9992
2 38771  98.6161 332.5071 0001417 105.3319 254.8015 14.21528985624973
METOP-B                 
1 38771U 12049A   24277.85397958  .00000984  00000+0  46902-3 0  9992
2 38771  98.6160 332.5758 0001413 105.2299 254.9035 14.21529628624996
METOP-B                 
1 38771U 12049A   24278.13552588  .00001002  00000+0  47714-3 0  9990
2 38771  98.6160 332.8506 0001421 105.0933 255.0402 14.21530263625024
METOP-B                 
1 38771U 12049A   24278.48745966  .00000860  00000+0  41258-3 0  9990
2 38771  98.6159 333.1941 0001421 104.8733 255.2602 14.21529784625079
METOP-B                 
1 38771U 12049A   24278.83939251  .00000931  00000+0  44483-3 0  9993
2 38771  98.6158 333.5376 0001419 104.5092 255.6243 14.21530703625120
METOP-B                 
1 38771U 12049A   24278.90977900  .00000971  00000+0  46322-3 0  9992
2 38771  98.6158 333.6063 0001426 104.6113 255.5223 14.21530991625145
METOP-B                 
1 38771U 12049A   24279.12093857  .00000960  00000+0  45799-3 0  9992
2 38771  98.6157 333.8124 0001425 104.5259 255.6077 14.21531352625165
METOP-B                 
1 38771U 12049A   24279.47287163  .00000934  00000+0  44626-3 0  9994
2 38771  98.6156 334.1559 0001430 104.4379 255.6957 14.21531601625218
METOP-B                 
1 38771U 12049A   24279.54325813  .00000942  00000+0  44967-3 0  9994
2 38771  98.6156 334.2247 0001429 104.3724 255.7613 14.21531757625238
METOP-B                 
1 38771U 12049A   24279.82480407  .00000945  00000+0  45136-3 0  9998
2 38771  98.6155 334.4994 0001431 104.5332 255.6004 14.21532227625267
METOP-B                 
1 38771U 12049A   24279.89519055  .00000943  00000+0  45024-3 0  9991
2 38771  98.6155 334.5681 0001430 104.4888 255.6448 14.21532340625285
METOP-B                 
1 38771U 12049A   24280.10634989  .00000948  00000+0  45233-3 0  9998
2 38771  98.6155 334.7742 0001429 104.3194 255.8142 14.21532752625305
METOP-B                 
1 38771U 12049A   24280.45828260  .00000790  00000+0  38053-3 0  9990
2 38771  98.6154 335.1178 0001437 103.9248 256.2090 14.21532384625359
METOP-B                 
1 38771U 12049A   24280.52866911  .00000770  00000+0  37147-3 0  9994
2 38771  98.6154 335.1865 0001436 103.8445 256.2892 14.21532365625370
METOP-B                 
1 38771U 12049A   24280.81021476  .00000806  00000+0  38776-3 0  9994
2 38771  98.6153 335.4612 0001443 103.8949 256.2389 14.21533062625409
METOP-B                 
1 38771U 12049A   24280.88060116  .00000820  00000+0  39396-3 0  9990
2 38771  98.6153 335.5300 0001444 103.9351 256.1988 14.21533215625429
METOP-B                 
1 38771U 12049A   24281.16214660  .00000855  00000+0  41029-3 0  9991
2 38771  98.6152 335.8047 0001446 103.6943 256.4396 14.21533949625458
METOP-B                 
1 38771U 12049A   24281.44369202  .00000871  00000+0  41722-3 0  9993
2 38771  98.6152 336.0795 0001451 103.2761 256.8578 14.21534512625498
METOP-B                 
1 38771U 12049A   24281.51407847  .00000746  00000+0  36029-3 0  9994
2 38771  98.6152 336.1483 0001453 103.4180 256.7159 14.21533977625513
METOP-B                 
1 38771U 12049A   24281.79562375  .00000780  00000+0  37581-3 0  9994
2 38771  98.6151 336.4230 0001462 103.2710 256.8631 14.21534675625547
METOP-B                 
1 38771U 12049A   24281.86601007  .00000775  00000+0  37377-3 0  9995
2 38771  98.6151 336.4917 0001463 103.2707 256.8634 14.21534784625562
METOP-B                 
1 38771U 12049A   24282.14755063  .00001907  00000+0  89038-3 0  9998
2 38771  98.6150 336.7665 0001463 102.6320 257.5021 14.21542696625590
METOP-B                 
1 38771U 12049A   24282.42909869  .00001067  00000+0  50668-3 0  9998
2 38771  98.6150 337.0413 0001468 102.7556 257.3786 14.21537791625633
METOP-B                 
1 38771U 12049A   24282.56987097  .00001067  00000+0  50685-3 0  9991
2 38771  98.6150 337.1787 0001468 102.6167 257.5175 14.21538119625667
METOP-B                 
1 38771U 12049A   24282.78103130  .00000752  00000+0  36286-3 0  9994
2 38771  98.6150 337.3847 0001472 102.5574 257.5768 14.21536319625682
METOP-B                 
1 38771U 12049A   24282.85141752  .00000755  00000+0  36447-3 0  9996
2 38771  98.6149 337.4535 0001474 102.4937 257.6406 14.21536443625700
METOP-B                 
1 38771U 12049A   24283.13296229  .00000876  00000+0  41967-3 0  9995
2 38771  98.6149 337.7282 0001472 102.0892 258.0451 14.21537635625738
METOP-B                 
1 38771U 12049A   24283.48489349  .00000740  00000+0  35733-3 0  9994
2 38771  98.6149 338.0717 0001473 101.8433 258.2910 14.21537431625785
METOP-B                 
1 38771U 12049A   24283.83682414  .00000778  00000+0  37501-3 0  9997
2 38771  98.6148 338.4152 0001475 101.7561 258.3782 14.21538377625838
METOP-B                 
1 38771U 12049A   24283.83682414  .00000778  00000+0  37501-3 0  9997
2 38771  98.6148 338.4152 0001475 101.7561 258.3782 14.21538377625849
METOP-B                 
1 38771U 12049A   24284.11836867  .00000754  00000+0  36374-3 0  9993
2 38771  98.6148 338.6900 0001468 101.3879 258.7463 14.21538760625871
METOP-B                 
1 38771U 12049A   24284.47029934  .00000784  00000+0  37771-3 0  9996
2 38771  98.6148 339.0335 0001467 101.0837 259.0506 14.21539496625923
